[{"OBJECT_NAME":"IRIDIUM 151","OBJECT_ID":"2017-083E","EPOCH":"2026-03-09T21:03:19.137312","MEAN_MOTION":14.34219156,"ECCENTRICITY":0.00022172,"INCLINATION":86.4026,"RA_OF_ASC_NODE":3.558,"ARG_OF_PERICENTER":86.5929,"MEAN_ANOMALY":273.552,"EPHEMERIS_TYPE":0,"CLASSIFICATION_TYPE":"U","NORAD_CAT_ID":43074,"ELEMENT_SET_NO":999,"REV_AT_EPOCH":42990,"BSTAR":0.00015053451,"MEAN_MOTION_DOT":4.41e-6,"MEAN_MOTION_DDOT":0},{"OBJECT_NAME":"COSMOS 1275 DEB","OBJECT_ID":"1981-053KN","EPOCH":"2026-03-09T06:53:49.040160","MEAN_MOTION":14.36936226,"ECCENTRICITY":0.00189485,"INCLINATION":82.9377,"RA_OF_ASC_NODE":100.5913,"ARG_OF_PERICENTER":76.7862,"MEAN_ANOMALY":46.1694,"EPHEMERIS_TYPE":0,"CLASSIFICATION_TYPE":"U","NORAD_CAT_ID":17619,"ELEMENT_SET_NO":999,"REV_AT_EPOCH":10081,"BSTAR":0.0014769007,"MEAN_MOTION_DOT":4.397e-5,"MEAN_MOTION_DDOT":0}]
